[{"OBJECT_NAME":"OBJECT D","OBJECT_ID":"2024-092D","EPOCH":"2026-03-09T21:12:33.501312","MEAN_MOTION":15.33078357,"ECCENTRICITY":0.00083397,"INCLINATION":97.6418,"RA_OF_ASC_NODE":198.2302,"ARG_OF_PERICENTER":141.9853,"MEAN_ANOMALY":218.1979,"EPHEMERIS_TYPE":0,"CLASSIFICATION_TYPE":"U","NORAD_CAT_ID":59776,"ELEMENT_SET_NO":999,"REV_AT_EPOCH":10051,"BSTAR":0.00076511005,"MEAN_MOTION_DOT":0.00024443,"MEAN_MOTION_DDOT":0},{"OBJECT_NAME":"STARLINK-35566","OBJECT_ID":"2025-235D","EPOCH":"2026-03-09T18:00:19.547136","MEAN_MOTION":15.30202439,"ECCENTRICITY":9.458e-5,"INCLINATION":53.1598,"RA_OF_ASC_NODE":244.7815,"ARG_OF_PERICENTER":58.9602,"MEAN_ANOMALY":301.1491,"EPHEMERIS_TYPE":0,"CLASSIFICATION_TYPE":"U","NORAD_CAT_ID":66061,"ELEMENT_SET_NO":999,"REV_AT_EPOCH":2293,"BSTAR":0.00073035611,"MEAN_MOTION_DOT":0.00021336,"MEAN_MOTION_DDOT":0}]
